IRIDIUM 150             
1 43257U 18030J   24309.60415243  .00001166  00000+0  40925-3 0  9992
2 43257  86.4021 176.9021 0002196  77.4862 282.6579 14.34222701345650
IRIDIUM 143             
1 43258U 18030K   24309.58513158  .00000471  00000+0  16120-3 0  9992
2 43258  86.4022 176.9792 0002318  71.6332 288.5116 14.34216420345586
IRIDIUM 161             
1 43478U 18047C   24309.57954325  .00001540  00000+0  45182-3 0  9996
2 43478  86.4486 334.8829 0002331  91.0608 269.0860 14.43272251340092
IRIDIUM 152             
1 43479U 18047D   24309.62761758  .00000209  00000+0  67437-4 0  9998
2 43479  86.3957 334.7223 0002328  98.0728 262.0732 14.34218984337986
IRIDIUM 147             
1 43480U 18047E   24309.56419203  .00000251  00000+0  82618-4 0  9993
2 43480  86.3960 334.7429 0002043 100.9339 259.2087 14.34215489337972
IRIDIUM 110             
1 43481U 18047F   24309.57053801  .00001066  00000+0  37346-3 0  9995
2 43481  86.3963 334.8173 0002333 104.9432 255.2023 14.34222257337969
IRIDIUM 162             
1 43482U 18047G   24309.57324325  .00001542  00000+0  45237-3 0  9995
2 43482  86.4483 334.7836 0002205  97.4220 262.7232 14.43276886340081
IRIDIUM 160             
1 43569U 18061A   24309.37682996  .00000198  00000+0  63575-4 0  9998
2 43569  86.3922 303.2610 0002032  94.9560 265.1868 14.34218795328838
